ONEWEB-0043             
1 45149U 20008U   24004.59878650 -.00000558  00000+0 -16362-2 0  9990
2 45149  87.8893 213.9583 0000919  91.2614 268.8618 13.10368918191023
ONEWEB-0044             
1 45150U 20008V   24004.55169158  .00000319  00000+0  87750-3 0  9997
2 45150  87.8898 213.9653 0001072  89.1249 271.0001 13.10375815191317
ONEWEB-0045             
1 45151U 20008W   24004.58289865  .00000174  00000+0  45378-3 0  9998
2 45151  87.8953 198.8354 0001539  89.7642 270.3662 13.11419366193936
ONEWEB-0047             
1 45152U 20008X   24004.54356359 -.00000186  00000+0 -57031-3 0  9992
2 45152  87.8900 213.9684 0001362  88.1285 271.9998 13.10378459191038
ONEWEB-0048             
1 45153U 20008Y   24004.61502866 -.00000389  00000+0 -11512-2 0  9995
2 45153  87.8900 213.9662 0001371  90.0989 270.0295 13.10372566190658
ONEWEB-0049             
1 45154U 20008Z   24004.61665850 -.00000150  00000+0 -46513-3 0  9995
2 45154  87.8904 213.9392 0001232  60.9315 299.1936 13.10377047190875
ONEWEB-0051             
1 45155U 20008AA  24004.58128641  .00000129  00000+0  32892-3 0  9993
2 45155  87.8958 198.8760 0001705  88.0216 272.1107 13.11420085193833
ONEWEB-0052             
1 45156U 20008AB  24004.61340320 -.00000361  00000+0 -10715-2 0  9997
2 45156  87.8897 213.9236 0001022  60.7419 299.3810 13.10372494190789
